NORAD_CAT_ID,OBJECT_NAME,OBJECT_TYPE,EPOCH,MEAN_MOTION,ECCENTRICITY,INCLINATION,RA_OF_ASC_NODE,ARG_OF_PERICENTER,MEAN_ANOMALY,BSTAR,MEAN_MOTION_DOT,MEAN_MOTION_DDOT,TLE_LINE0,TLE_LINE1,TLE_LINE2,SEMIMAJOR_AXIS,PERIOD,APOGEE,PERIGEE,DECAYED
54087.0,STARLINK-5184,PAYLOAD,2023-08-19 05:32:04,15.08841604,0.0001337,53.2158,204.5701,94.877,265.2374,7.5938e-05,9.21e-06,0.0,0 STARLINK-5184,1 54087U 22136AN  23231.23061273  .00000921  00000-0  75938-4 0  9991,2 54087  53.2158 204.5701 0001337  94.8770 265.2374 15.08841604 46532,6917.875,95.437,540.665,538.816,0.0
54087.0,STARLINK-5184,PAYLOAD,2023-08-20 03:47:29,15.0883436,0.0001301,53.2153,200.4066,93.6023,266.5117,5.6862e-05,6.17e-06,0.0,0 STARLINK-5184,1 54087U 22136AN  23232.15798118  .00000617  00000-0  56862-4 0  9995,2 54087  53.2153 200.4066 0001301  93.6023 266.5117 15.08834360 46670,6917.898,95.438,540.663,538.863,0.0
54087.0,STARLINK-5184,PAYLOAD,2023-08-21 03:38:16,15.08844928,0.0001295,53.2153,195.9458,89.6078,270.5063,7.4554e-05,8.99e-06,0.0,0 STARLINK-5184,1 54087U 22136AN  23233.15157529  .00000899  00000-0  74554-4 0  9991,2 54087  53.2153 195.9458 0001295  89.6078 270.5063 15.08844928 46823,6917.865,95.437,540.626,538.834,0.0
54087.0,STARLINK-5184,PAYLOAD,2023-08-22 09:50:35,15.08847597,0.0001397,53.2161,190.2949,89.9284,270.1868,0.00012089,1.637e-05,0.0,0 STARLINK-5184,1 54087U 22136AN  23234.41013166  .00001637  00000-0  12089-3 0  9994,2 54087  53.2161 190.2949 0001397  89.9284 270.1868 15.08847597 47016,6917.857,95.437,540.689,538.756,0.0
54087.0,STARLINK-5184,PAYLOAD,2023-08-23 01:44:27,15.08843034,0.0001798,53.2161,187.3197,107.8204,252.2985,-1.5117e-05,-5.29e-06,0.0,0 STARLINK-5184,1 54087U 22136AN  23235.07253805 -.00000529  00000-0 -15117-4 0  9990,2 54087  53.2161 187.3197 0001798 107.8204 252.2985 15.08843034 47119,6917.871,95.437,540.98,538.492,0.0
54087.0,STARLINK-5184,PAYLOAD,2023-08-24 06:21:23,15.0884814,0.0001357,53.2158,181.9699,114.8777,245.2357,0.00012095,1.638e-05,0.0,0 STARLINK-5184,1 54087U 22136AN  23236.26485150  .00001638  00000-0  12095-3 0  9993,2 54087  53.2158 181.9699 0001357 114.8777 245.2357 15.08848140 46821,6917.856,95.437,540.659,538.782,0.0
54087.0,STARLINK-5184,PAYLOAD,2023-08-25 03:01:24,15.08837124,0.0001473,53.2166,178.1045,99.4698,260.646,7.6574e-05,9.31e-06,0.0,0 STARLINK-5184,1 54087U 22136AN  23237.12598301  .00000931  00000-0  76574-4 0  9990,2 54087  53.2166 178.1045 0001473  99.4698 260.6460 15.08837124 47425,6917.889,95.438,540.773,538.735,0.0
54087.0,STARLINK-5184,PAYLOAD,2023-08-25 06:12:10,15.08840981,0.0001443,53.2166,177.5092,99.7623,260.3532,0.00010592,1.398e-05,0.0,0 STARLINK-5184,1 54087U 22136AN  23237.25846015  .00001398  00000-0  10592-3 0  9997,2 54087  53.2166 177.5092 0001443  99.7623 260.3532 15.08840981 46979,6917.877,95.437,540.741,538.744,0.0
54087.0,STARLINK-5184,PAYLOAD,2023-08-26 04:27:35,15.08829111,0.0001519,53.2172,173.346,103.766,256.3501,0.00035718,5.399e-05,0.0,0 STARLINK-5184,1 54087U 22136AN  23238.18582532  .00005399  00000-0  35718-3 0  9993,2 54087  53.2172 173.3460 0001519 103.7660 256.3501 15.08829111 47581,6917.914,95.438,540.83,538.728,0.0
54087.0,STARLINK-5184,PAYLOAD,2023-08-27 05:53:45,15.08843159,0.0001377,53.217,168.5883,87.4149,272.7001,0.00012219,1.657e-05,0.0,0 STARLINK-5184,1 54087U 22136AN  23239.24566253  .00001657  00000-0  12219-3 0  9997,2 54087  53.2170 168.5883 0001377  87.4149 272.7001 15.08843159 47749,6917.871,95.437,540.688,538.783,0.0
54087.0,STARLINK-5184,PAYLOAD,2023-08-27 18:36:50,15.08844437,0.0001312,53.2168,166.2094,91.0945,269.0197,0.00015151,2.124e-05,0.0,0 STARLINK-5184,1 54087U 22136AN  23239.77558022  .00002124  00000-0  15151-3 0  9998,2 54087  53.2168 166.2094 0001312  91.0945 269.0197 15.08844437 47351,6917.867,95.437,540.639,538.824,0.0
54087.0,STARLINK-5184,PAYLOAD,2023-08-28 00:58:23,15.0883911,0.0001318,53.217,165.0207,93.6969,266.4174,2.1653e-05,5.7e-07,0.0,0 STARLINK-5184,1 54087U 22136AN  23240.04054895  .00000057  00000-0  21653-4 0  9997,2 54087  53.2170 165.0207 0001318  93.6969 266.4174 15.08839110 47861,6917.883,95.438,540.66,538.836,0.0
54087.0,STARLINK-5184,PAYLOAD,2023-08-28 04:09:09,15.08846065,0.0001349,53.2168,164.4249,88.0817,272.033,6.6302e-05,7.68e-06,0.0,0 STARLINK-5184,1 54087U 22136AN  23240.17302258  .00000768  00000-0  66302-4 0  9999,2 54087  53.2168 164.4249 0001349  88.0817 272.0330 15.08846065 47887,6917.862,95.437,540.66,538.794,0.0
54087.0,STARLINK-5184,PAYLOAD,2023-08-28 12:06:05,15.08841836,0.0001334,53.2167,162.9375,87.4644,272.6501,1.8083e-05,0.0,0.0,0 STARLINK-5184,1 54087U 22136AN  23240.50422614 -.00000000  00000-0  18083-4 0  9998,2 54087  53.2167 162.9375 0001334  87.4644 272.6501 15.08841836 47937,6917.875,95.437,540.663,538.817,0.0
54087.0,STARLINK-5184,PAYLOAD,2023-08-29 11:56:52,15.08837437,0.0001354,53.2161,158.4748,91.2778,268.837,-4.5002e-06,-3.6e-06,0.0,0 STARLINK-5184,1 54087U 22136AN  23241.49783093 -.00000360  00000-0 -45002-5 0  9990,2 54087  53.2161 158.4748 0001354  91.2778 268.8370 15.08837437 48088,6917.888,95.438,540.69,538.817,0.0
54087.0,STARLINK-5184,PAYLOAD,2023-08-30 03:50:43,15.08841451,0.0001446,53.2167,155.5037,87.6346,272.4812,4.0523e-05,3.57e-06,0.0,0 STARLINK-5184,1 54087U 22136AN  23242.16023073  .00000357  00000-0  40523-4 0  9996,2 54087  53.2167 155.5037 0001446  87.6346 272.4812 15.08841451 47717,6917.876,95.437,540.741,538.741,0.0
54087.0,STARLINK-5184,PAYLOAD,2023-08-31 00:30:44,15.08842939,0.0001342,53.2162,151.6386,93.0591,267.0554,0.00012074,1.634e-05,0.0,0 STARLINK-5184,1 54087U 22136AN  23243.02134695  .00001634  00000-0  12074-3 0  9993,2 54087  53.2162 151.6386 0001342  93.0591 267.0554 15.08842939 48316,6917.871,95.437,540.665,538.808,0.0
54087.0,STARLINK-5184,PAYLOAD,2023-08-31 03:41:30,15.08853481,0.0001378,53.2164,151.0428,90.935,269.18,0.00013284,1.828e-05,0.0,0 STARLINK-5184,1 54087U 22136AN  23243.15382006  .00001828  00000-0  13284-3 0  9997,2 54087  53.2164 151.0428 0001378  90.9350 269.1800 15.08853481 48330,6917.839,95.437,540.657,538.751,0.0
54087.0,STARLINK-5184,PAYLOAD,2023-09-01 00:21:31,15.08834631,0.0001303,53.2164,147.1785,94.796,265.3181,0.00011387,1.525e-05,0.0,0 STARLINK-5184,1 54087U 22136AN  23244.01495279  .00001525  00000-0  11387-3 0  9996,2 54087  53.2164 147.1785 0001303  94.7960 265.3181 15.08834631 48469,6917.897,95.438,540.663,538.86,0.0
54087.0,STARLINK-5184,PAYLOAD,2023-09-01 03:32:17,15.08843213,0.0001219,53.2162,146.5837,87.773,272.3402,0.0001389,1.924e-05,0.0,0 STARLINK-5184,1 54087U 22136AN  23244.14742800  .00001924  00000-0  13890-3 0  9999,2 54087  53.2162 146.5837 0001219  87.7730 272.3402 15.08843213 48483,6917.871,95.437,540.579,538.892,0.0
54087.0,STARLINK-5184,PAYLOAD,2023-09-01 17:50:46,15.08849523,0.0001541,53.2175,143.9092,90.2834,269.8335,-1.942e-05,-5.97e-06,0.0,0 STARLINK-5184,1 54087U 22136AN  23244.74358904 -.00000597  00000-0 -19420-4 0  9996,2 54087  53.2175 143.9092 0001541  90.2834 269.8335 15.08849523 48108,6917.851,95.437,540.782,538.65,0.0
54087.0,STARLINK-5184,PAYLOAD,2023-09-02 09:44:37,15.08837848,0.0001708,53.2165,140.933,84.8397,275.279,-7.6809e-05,-1.51e-05,0.0,0 STARLINK-5184,1 54087U 22136AN  23245.40599449 -.00001510  00000-0 -76809-4 0  9991,2 54087  53.2165 140.9330 0001708  84.8397 275.2790 15.08837848 48672,6917.887,95.438,540.934,538.57,0.0
54087.0,STARLINK-5184,PAYLOAD,2023-09-03 09:35:24,15.08843265,0.0001392,53.217,136.4712,84.372,275.7431,8.2291e-05,1.022e-05,0.0,0 STARLINK-5184,1 54087U 22136AN  23246.39959065  .00001022  00000-0  82291-4 0  9992,2 54087  53.2170 136.4712 0001392  84.3720 275.7431 15.08843265 48820,6917.87,95.437,540.698,538.772,0.0
54087.0,STARLINK-5184,PAYLOAD,2023-09-04 01:29:16,15.08833688,0.0001407,53.2186,133.4997,98.7067,261.4085,-3.0754e-05,-7.77e-06,0.0,0 STARLINK-5184,1 54087U 22136AN  23247.06200163 -.00000777  00000-0 -30754-4 0  9990,2 54087  53.2186 133.4997 0001407  98.7067 261.4085 15.08833688 48925,6917.9,95.438,540.738,538.791,0.0
54087.0,STARLINK-5184,PAYLOAD,2023-09-04 18:58:31,15.08837874,0.0001491,53.2178,130.2308,101.9382,258.1777,9.1762e-05,1.173e-05,0.0,0 STARLINK-5184,1 54087U 22136AN  23247.79063824  .00001173  00000-0  91762-4 0  9996,2 54087  53.2178 130.2308 0001491 101.9382 258.1777 15.08837874 49032,6917.887,95.438,540.783,538.72,0.0
54087.0,STARLINK-5184,PAYLOAD,2023-09-05 01:20:03,15.0884547,0.0001417,53.217,129.0395,97.5555,262.5598,8.0455e-05,9.93e-06,0.0,0 STARLINK-5184,1 54087U 22136AN  23248.05559473  .00000993  00000-0  80455-4 0  9992,2 54087  53.2170 129.0395 0001417  97.5555 262.5598 15.08845470 48609,6917.864,95.437,540.709,538.748,0.0
54087.0,STARLINK-5184,PAYLOAD,2023-09-05 22:00:04,15.08841047,0.0001417,53.2171,125.1738,92.3459,267.7696,0.00021188,3.086e-05,0.0,0 STARLINK-5184,1 54087U 22136AN  23248.91671560  .00003086  00000-0  21188-3 0  9992,2 54087  53.2171 125.1738 0001417  92.3459 267.7696 15.08841047 49203,6917.877,95.437,540.722,538.762,0.0
54087.0,STARLINK-5184,PAYLOAD,2023-09-06 23:26:13,15.08849974,0.0001249,53.2163,120.4151,91.6444,268.4692,8.8033e-05,1.114e-05,0.0,0 STARLINK-5184,1 54087U 22136AN  23249.97655055  .00001114  00000-0  88033-4 0  9993,2 54087  53.2163 120.4151 0001249  91.6444 268.4692 15.08849974 49368,6917.85,95.437,540.579,538.851,0.0
54087.0,STARLINK-5184,PAYLOAD,2023-09-07 15:20:05,15.08840805,0.0001422,53.2167,117.4413,89.5559,270.5596,5.4345e-05,5.77e-06,0.0,0 STARLINK-5184,1 54087U 22136AN  23250.63895583  .00000577  00000-0  54345-4 0  9991,2 54087  53.2167 117.4413 0001422  89.5559 270.5596 15.08840805 49467,6917.878,95.438,540.727,538.759,0.0
54087.0,STARLINK-5184,PAYLOAD,2023-09-08 00:52:24,15.08845298,0.000153,53.2169,115.6569,100.5626,259.5538,4.8504e-05,4.84e-06,0.0,0 STARLINK-5184,1 54087U 22136AN  23251.03639081  .00000484  00000-0  48504-4 0  9992,2 54087  53.2169 115.6569 0001530 100.5626 259.5538 15.08845298 49059,6917.864,95.437,540.788,538.671,0.0
